[{"OBJECT_NAME":"STARLINK-35112","OBJECT_ID":"2025-200A","EPOCH":"2026-03-09T17:34:34.600224","MEAN_MOTION":15.05693612,"ECCENTRICITY":0.00035008,"INCLINATION":97.6036,"RA_OF_ASC_NODE":139.7855,"ARG_OF_PERICENTER":25.4618,"MEAN_ANOMALY":334.678,"EPHEMERIS_TYPE":0,"CLASSIFICATION_TYPE":"U","NORAD_CAT_ID":65520,"ELEMENT_SET_NO":999,"REV_AT_EPOCH":2913,"BSTAR":0.0019596167,"MEAN_MOTION_DOT":0.00028363,"MEAN_MOTION_DDOT":0},{"OBJECT_NAME":"CZ-2C DEB","OBJECT_ID":"2013-035C","EPOCH":"2026-03-09T23:28:11.376480","MEAN_MOTION":14.97090669,"ECCENTRICITY":0.00414021,"INCLINATION":98.2221,"RA_OF_ASC_NODE":340.898,"ARG_OF_PERICENTER":245.2603,"MEAN_ANOMALY":114.4306,"EPHEMERIS_TYPE":0,"CLASSIFICATION_TYPE":"U","NORAD_CAT_ID":39204,"ELEMENT_SET_NO":999,"REV_AT_EPOCH":67473,"BSTAR":0.0018072367,"MEAN_MOTION_DOT":0.00021197,"MEAN_MOTION_DDOT":0}]
